OBJECT_NAME,OBJECT_ID,EPOCH,MEAN_MOTION,ECCENTRICITY,INCLINATION,RA_OF_ASC_NODE,ARG_OF_PERICENTER,MEAN_ANOMALY,EPHEMERIS_TYPE,CLASSIFICATION_TYPE,NORAD_CAT_ID,ELEMENT_SET_NO,REV_AT_EPOCH,BSTAR,MEAN_MOTION_DOT,MEAN_MOTION_DDOT
ONEWEB-0284,2021-060AM,2026-05-22T13:03:24.154848,13.16593313,.0001858,87.9108,233.8639,109.9959,250.1372,0,U,49002,999,23622,.2928E-3,.125E-5,0
JILIN-1 KUANFU-01B,2021-061A,2026-05-22T17:24:13.423968,15.09865736,.0008596,97.5207,219.3883,146.5121,213.6654,0,U,49003,999,26950,.13129E-3,.2063E-4,0
FENGYUN 3E,2021-062A,2026-05-22T16:37:24.297312,14.19901830,.0002213,98.7499,146.3854,130.1949,229.9421,0,U,49008,999,25296,.27331E-4,.14E-6,0
TIANLIAN 1-05,2021-063A,2026-05-23T05:37:27.037344,1.00273360,.0001478,1.5318,80.8871,287.4267,333.6653,0,U,49011,999,1782,0,.101E-5,0
NINGXIA-1 6,2021-064A,2026-05-22T17:45:33.676704,14.08530896,.0007477,45.0011,342.0612,107.9565,252.2087,0,U,49018,999,25062,.6944E-4,-.12E-6,0
NINGXIA-1 7,2021-064B,2026-05-22T17:25:45.211872,14.08545795,.0006364,45.0037,342.3574,117.6417,242.5067,0,U,49019,999,25065,-.65304E-4,-.245E-5,0
NINGXIA-1 8,2021-064C,2026-05-22T17:06:36.326880,14.08533296,.0007219,44.9957,341.1384,124.3911,235.7609,0,U,49020,999,25063,-.61398E-4,-.238E-5,0
NINGXIA-1 9,2021-064D,2026-05-22T16:44:21.812352,14.08557000,.0008168,45.0038,342.1451,133.5695,226.5821,0,U,49021,999,25063,.91068E-4,.26E-6,0
NINGXIA-1 10,2021-064E,2026-05-22T18:06:32.469408,14.08550816,.0007582,45.0008,341.3466,140.1817,219.9577,0,U,49022,999,25064,.17278E-3,.167E-5,0
YAOGAN-30 11A,2021-065A,2026-05-22T17:48:23.982336,15.02566265,.0005547,34.9938,68.1881,287.9006,72.1097,0,U,49026,999,26481,.1521E-3,.2036E-4,0
TIANQI-15,2021-065B,2026-05-22T17:37:29.822016,15.10261852,.0005812,34.9996,12.6146,196.3082,163.7442,0,U,49027,999,26542,.23123E-3,.3838E-4,0
YAOGAN-30 11B,2021-065C,2026-05-22T18:51:03.511584,15.02530120,.0001203,34.9939,67.6127,266.7846,93.2724,0,U,49028,999,26480,.15541E-3,.2078E-4,0
YAOGAN-30 11C,2021-065D,2026-05-22T16:43:31.243296,15.02543169,.0003118,34.9950,67.9886,31.5604,328.5291,0,U,49029,999,26482,.12706E-3,.1694E-4,0
ISS (NAUKA),2021-066A,2026-05-22T12:28:18.496128,15.49313075,.0007537,51.6330,67.1668,86.3178,273.8672,0,U,49044,999,56763,.13945E-3,.7327E-4,0
TIANHUI 1-04,2021-067A,2026-05-22T17:05:46.100832,15.23458444,.000043,97.2773,211.5817,65.9064,294.2219,0,U,49049,999,26771,.16575E-3,.3882E-4,0
MONOLITH,2021-068A,2026-05-22T03:36:29.356128,15.08846298,.00035408,37.0237,60.2306,335.3787,24.6789,0,U,49052,999,26334,.26086973E-3,.4106E-4,0
STAR ONE D2,2021-069A,2026-05-22T13:48:40.251168,1.00270962,.0001737,0.0067,311.4948,137.9268,287.8738,0,U,49055,999,1768,0,0,0
EUTELSAT QUANTUM,2021-069B,2026-05-22T17:47:33.307008,1.00271315,.000219,0.0120,347.6661,68.6880,138.5971,0,U,49056,999,1767,0,.118E-5,0
KL-BETA A,2021-070A,2026-05-22T16:02:05.598240,13.94389049,.0003743,89.0056,221.3228,97.8984,262.2616,0,U,49059,999,24437,.69205E-4,.106E-5,0
KL-BETA B,2021-070B,2026-05-22T16:31:54.861024,13.94716197,.0004704,89.0054,221.2366,172.2654,187.8595,0,U,49060,999,24441,.62251E-4,.97E-6,0
ZHONGXING-2E,2021-071A,2026-05-22T12:53:58.862112,1.00267934,.0001795,0.0123,299.4553,195.9681,36.2963,0,U,49062,999,1778,0,0,0
PLEIADES NEO 4,2021-073E,2026-05-22T16:36:36.841248,14.81679592,.000146,97.8924,217.8208,94.7179,265.4201,0,U,49070,999,25759,.11749E-3,.873E-5,0
TIANHUI 2-02A,2021-074A,2026-05-22T11:11:57.153408,15.16726655,.0001794,97.4811,146.0332,114.0371,246.1050,0,U,49071,999,26337,.62645E-4,.1161E-4,0
TIANHUI 2-02B,2021-074B,2026-05-22T11:11:57.205248,15.16726804,.0001925,97.4811,146.0289,97.8784,262.2667,0,U,49072,999,26337,.64781E-4,.1203E-4,0
ONEWEB-0285,2021-075A,2026-05-22T14:19:45.100992,13.12440686,.0001725,87.8961,355.7507,85.1792,274.9533,0,U,49075,999,23185,.304E-3,.122E-5,0
ONEWEB-0286,2021-075B,2026-05-22T08:24:35.328096,13.12444270,.0001972,87.8952,355.8191,89.2803,270.8551,0,U,49076,999,23117,.10599E-2,.394E-5,0
ONEWEB-0287,2021-075C,2026-05-22T08:21:37.251648,13.17650316,.0002177,87.9161,11.0040,93.4171,266.7209,0,U,49077,999,23022,.72444E-4,.41E-6,0
ONEWEB-0288,2021-075D,2026-05-22T13:19:58.357056,13.12443924,.0001836,87.8962,355.7526,93.0214,267.1124,0,U,49078,999,23182,-.81848E-3,-.282E-5,0
ONEWEB-0289,2021-075E,2026-05-22T09:17:18.687840,13.17650378,.0001421,87.9159,11.0123,87.7446,272.3848,0,U,49079,999,23080,.79424E-4,.44E-6,0
ONEWEB-0290,2021-075F,2026-05-22T14:06:41.232672,13.17648609,.0001312,87.9166,10.9431,86.6840,273.4442,0,U,49080,999,23024,.2447E-4,.22E-6,0
ONEWEB-0291,2021-075G,2026-05-22T13:44:49.138080,13.17646584,.000189,87.9173,10.9534,94.5067,265.6281,0,U,49081,999,23023,.29202E-2,.1147E-4,0
