ONEWEB-0284             
1 49002U 21060AM  26142.54402957  .00000125  00000+0  29280-3 0  9996
2 49002  87.9108 233.8639 0001858 109.9959 250.1372 13.16593313236228
JILIN-1 KUANFU-01B      
1 49003U 21061A   26142.72515537  .00002063  00000+0  13129-3 0  9995
2 49003  97.5207 219.3883 0008596 146.5121 213.6654 15.09865736269509
FENGYUN 3E              
1 49008U 21062A   26142.69264233  .00000014  00000+0  27331-4 0  9996
2 49008  98.7499 146.3854 0002213 130.1949 229.9421 14.19901830252964
TIANLIAN 1-05           
1 49011U 21063A   26143.23434071  .00000101  00000+0  00000+0 0  9997
2 49011   1.5318  80.8871 0001478 287.4267 333.6653  1.00273360 17822
NINGXIA-1 6             
1 49018U 21064A   26142.73997311 -.00000012  00000+0  69440-4 0  9990
2 49018  45.0011 342.0612 0007477 107.9565 252.2087 14.08530896250626
NINGXIA-1 7             
1 49019U 21064B   26142.72621773 -.00000245  00000+0 -65304-4 0  9990
2 49019  45.0037 342.3574 0006364 117.6417 242.5067 14.08545795250650
NINGXIA-1 8             
1 49020U 21064C   26142.71292045 -.00000238  00000+0 -61398-4 0  9998
2 49020  44.9957 341.1384 0007219 124.3911 235.7609 14.08533296250638
NINGXIA-1 9             
1 49021U 21064D   26142.69747468  .00000026  00000+0  91068-4 0  9990
2 49021  45.0038 342.1451 0008168 133.5695 226.5821 14.08557000250635
NINGXIA-1 10            
1 49022U 21064E   26142.75454247  .00000167  00000+0  17278-3 0  9994
2 49022  45.0008 341.3466 0007582 140.1817 219.9577 14.08550816250642
YAOGAN-30 11A           
1 49026U 21065A   26142.74194424  .00002036  00000+0  15210-3 0  9997
2 49026  34.9938  68.1881 0005547 287.9006  72.1097 15.02566265264819
TIANQI-15               
1 49027U 21065B   26142.73437294  .00003838  00000+0  23123-3 0  9995
2 49027  34.9996  12.6146 0005812 196.3082 163.7442 15.10261852265426
YAOGAN-30 11B           
1 49028U 21065C   26142.78545731  .00002078  00000+0  15541-3 0  9997
2 49028  34.9939  67.6127 0001203 266.7846  93.2724 15.02530120264802
YAOGAN-30 11C           
1 49029U 21065D   26142.69688939  .00001694  00000+0  12706-3 0  9999
2 49029  34.9950  67.9886 0003118  31.5604 328.5291 15.02543169264820
ISS (NAUKA)             
1 49044U 21066A   26142.51965852  .00007327  00000+0  13945-3 0  9995
2 49044  51.6330  67.1668 0007537  86.3178 273.8672 15.49313075567630
TIANHUI 1-04            
1 49049U 21067A   26142.71233913  .00003882  00000+0  16575-3 0  9993
2 49049  97.2773 211.5817 0000430  65.9064 294.2219 15.23458444267717
MONOLITH                
1 49052U 21068A   26142.15033977  .00004106  00000+0  26087-3 0  9993
2 49052  37.0237  60.2306 0003540 335.3787  24.6789 15.08846298263344
STAR ONE D2             
1 49055U 21069A   26142.57546587  .00000000  00000+0  00000+0 0  9991
2 49055   0.0067 311.4948 0001737 137.9268 287.8738  1.00270962 17684
EUTELSAT QUANTUM        
1 49056U 21069B   26142.74135772  .00000118  00000+0  00000+0 0  9991
2 49056   0.0120 347.6661 0002190  68.6880 138.5971  1.00271315 17675
KL-BETA A               
1 49059U 21070A   26142.66812035  .00000106  00000+0  69205-4 0  9995
2 49059  89.0056 221.3228 0003743  97.8984 262.2616 13.94389049244374
KL-BETA B               
1 49060U 21070B   26142.68882941  .00000097  00000+0  62251-4 0  9995
2 49060  89.0054 221.2366 0004704 172.2654 187.8595 13.94716197244417
ZHONGXING-2E            
1 49062U 21071A   26142.53748683  .00000000  00000+0  00000+0 0  9999
2 49062   0.0123 299.4553 0001795 195.9681  36.2963  1.00267934 17781
PLEIADES NEO 4          
1 49070U 21073E   26142.69209307  .00000873  00000+0  11749-3 0  9996
2 49070  97.8924 217.8208 0001460  94.7179 265.4201 14.81679592257597
TIANHUI 2-02A           
1 49071U 21074A   26142.46663372  .00001161  00000+0  62645-4 0  9992
2 49071  97.4811 146.0332 0001794 114.0371 246.1050 15.16726655263373
TIANHUI 2-02B           
1 49072U 21074B   26142.46663432  .00001203  00000+0  64781-4 0  9990
2 49072  97.4811 146.0289 0001925  97.8784 262.2667 15.16726804263376
ONEWEB-0285             
1 49075U 21075A   26142.59704978  .00000122  00000+0  30400-3 0  9998
2 49075  87.8961 355.7507 0001725  85.1792 274.9533 13.12440686231852
ONEWEB-0286             
1 49076U 21075B   26142.35040889  .00000394  00000+0  10599-2 0  9994
2 49076  87.8952 355.8191 0001972  89.2803 270.8551 13.12444270231178
ONEWEB-0287             
1 49077U 21075C   26142.34834782  .00000041  00000+0  72444-4 0  9995
2 49077  87.9161  11.0040 0002177  93.4171 266.7209 13.17650316230223
ONEWEB-0288             
1 49078U 21075D   26142.55553654 -.00000282  00000+0 -81848-3 0  9991
2 49078  87.8962 355.7526 0001836  93.0214 267.1124 13.12443924231822
ONEWEB-0289             
1 49079U 21075E   26142.38702185  .00000044  00000+0  79424-4 0  9990
2 49079  87.9159  11.0123 0001421  87.7446 272.3848 13.17650378230800
ONEWEB-0290             
1 49080U 21075F   26142.58797723  .00000022  00000+0  24470-4 0  9993
2 49080  87.9166  10.9431 0001312  86.6840 273.4442 13.17648609230249
ONEWEB-0291             
1 49081U 21075G   26142.57279095  .00001147  00000+0  29202-2 0  9995
2 49081  87.9173  10.9534 0001890  94.5067 265.6281 13.17646584230235
